SCD 1                   
1 22490U 93009B   26189.01836132  .00000347  00000+0  44088-4 0  9999
2 22490  24.9699  78.9536 0041846 358.7831 128.1795 14.46126775764131
TECHSAT 1B (GO-32)      
1 25397U 98043D   26188.92653238  .00000035  00000+0  35213-4 0  9998
2 25397  99.0078 182.2091 0001992 126.6982 233.4379 14.24432329454287
SCD 2                   
1 25504U 98060A   26188.46338725  .00000337  00000+0  43214-4 0  9992
2 25504  24.9961 307.1193 0016687 338.2344  85.0178 14.45533192463265
DLR-TUBSAT              
1 25757U 99029B   26189.23603132  .00000052  00000+0  24594-4 0  9995
2 25757  98.6705 185.4334 0012996 287.6739  72.3036 14.52432175436301
TERRA                   
1 25994U 99068A   26189.18153823  .00000284  00000+0  66815-4 0  9991
2 25994  97.9444 237.8942 0003081 136.7787 300.5111 14.61119919412677
MAROC-TUBSAT            
1 27004U 01056D   26188.97026850 -.00000021  00000+0  29319-4 0  9998
2 27004  99.8094   6.2224 0020637  89.9022  32.7641 13.70263263229030
AQUA                    
1 27424U 02022A   26189.19868323  .00000550  00000+0  11910-3 0  9995
2 27424  98.4289 158.9030 0000740  99.2232 317.2244 14.62189936286340
SHIYAN-1 (SY-1)         
1 28220U 04012A   26189.18752646  .00008975  00000+0  27259-3 0  9992
2 28220  97.8683 268.6278 0004138 308.8420  51.2452 15.34327079214318
AURA                    
1 28376U 04026A   26189.14353478  .00000576  00000+0  12629-3 0  9999
2 28376  98.3427 145.7717 0001233  90.3844 269.7498 14.61360786169272
IRS-P5 (CARTOSAT-1)     
1 28649U 05017A   26188.94867779  .00001130  00000+0  11931-3 0  9996
2 28649  97.5304 211.0712 0001756  57.0281 303.1107 14.91104329146915
SINAH 1                 
1 28893U 05043D   26189.17090403  .00000249  00000+0  56664-4 0  9997
2 28893  98.2885 323.6193 0013887 205.9281 154.1226 14.64172352103597
RESURS-DK 1             
1 29228U 06021A   26188.26242769  .00001509  00000+0  90655-4 0  9998
2 29228  69.9330 287.5844 0006734 279.9257  80.1149 15.13300743105617
ARIRANG-2 (KOMPSAT-2)   
1 29268U 06031A   26189.20700811  .00000026  00000+0  13321-4 0  9993
2 29268  97.8318  12.6369 0014873  12.6918  98.2342 14.64672395 64557
LAPAN-TUBSAT            
1 29709U 07001A   26189.19633852 -.00000160  00000+0 -11679-4 0  9994
2 29709  98.1354 188.8949 0013405 114.2659 245.9957 14.85970279 54278
HAIYANG-1B              
1 31113U 07010A   26188.91107286  .00000068  00000+0  41755-4 0  9995
2 31113  98.3507 169.9536 0014355 135.9558 224.2772 14.31031994  3606
COSMO-SKYMED 1          
1 31598U 07023A   26189.18798824  .00001503  00000+0  13518-3 0  9990
2 31598  97.8846  21.2215 0001055  89.8054 270.3288 14.97197626 32937
TERRASAR-X              
1 31698U 07026A   26188.47915537  .00000240  00000+0  14624-4 0  9994
2 31698  97.4461 195.8972 0001878  86.9540 273.1909 15.19153986 56300
WORLDVIEW-1 (WV-1)      
1 32060U 07041A   26189.16638753  .00003774  00000+0  15641-3 0  9998
2 32060  97.3891 308.6141 0000978 252.1709 107.9422 15.24505207 46076
YAOGAN-3                
1 32289U 07055A   26189.20256402  .00000813  00000+0  88228-4 0  9991
2 32289  97.8148 218.8728 0001603  76.8954 283.2443 14.90862902  9004
COSMO-SKYMED 2          
1 32376U 07059A   26189.15679260  .00000278  00000+0  41523-4 0  9999
2 32376  97.8891  12.4511 0001337  92.8268 267.3098 14.82162710  5112
RADARSAT-2              
1 32382U 07061A   26189.16901652 -.00000017  00000+0  10325-4 0  9991
2 32382  98.5784 195.8018 0001324  84.1185 276.0149 14.29981928968959
CARTOSAT-2A             
1 32783U 08021A   26189.15111434  .00000292  00000+0  45989-4 0  9991
2 32783  97.7619 237.1433 0012932  48.2883 311.9433 14.79269969981900
HUANJING 1A (HJ-1A)     
1 33320U 08041A   26189.20337329  .00001431  00000+0  17729-3 0  9996
2 33320  97.6697 174.2306 0020683  70.8997 289.4455 14.84040797961523
HUANJING 1B (HJ-1B)     
1 33321U 08041B   26189.24953760  .00000864  00000+0  11037-3 0  9999
2 33321  97.6532 177.3827 0037726 113.0959 247.4239 14.83356366961534
GEOEYE 1                
1 33331U 08042A   26189.19298869  .00000309  00000+0  67143-4 0  9991
2 33331  98.1329 262.8707 0004470   9.5886 350.5401 14.64645497953229
THEOS                   
1 33396U 08049A   26189.17603730 -.00000329  00000+0 -13453-3 0  9992
2 33396  98.5557 245.7774 0001135  86.1640 273.9667 14.20135252920945
COSMO-SKYMED 3          
1 33412U 08054A   26189.19129138  .00001204  00000+0  84450-4 0  9991
2 33412  97.8267  48.1091 0015124 188.7070 171.3897 15.07087527960105
YAOGAN-4                
1 33446U 08061A   26188.81045852  .00000872  00000+0  11316-3 0  9994
2 33446  97.9306 122.1690 0014486   9.7666 350.3826 14.83242097948721
GOSAT (IBUKI)           
1 33492U 09002A   26188.86573616 -.00000053  00000+0 -80310-6 0  9996
2 33492  98.0908 299.6896 0001081  81.4527 278.6800 14.67537565934492
DEIMOS-1                
1 35681U 09041A   26189.21259105  .00000772  00000+0  12112-3 0  9993
2 35681  97.7431 345.5315 0002619 102.1671 257.9832 14.75261044909983
DUBAISAT-1              
1 35682U 09041B   26188.91322531  .00000654  00000+0  10435-3 0  9999
2 35682  98.0076 321.9469 0010490  12.1532 347.9928 14.75158632908155
