OBJECT_NAME,OBJECT_ID,EPOCH,MEAN_MOTION,ECCENTRICITY,INCLINATION,RA_OF_ASC_NODE,ARG_OF_PERICENTER,MEAN_ANOMALY,EPHEMERIS_TYPE,CLASSIFICATION_TYPE,NORAD_CAT_ID,ELEMENT_SET_NO,REV_AT_EPOCH,BSTAR,MEAN_MOTION_DOT,MEAN_MOTION_DDOT
SCD 1,1993-009B,2026-07-08T00:26:26.418048,14.46126775,.0041846,24.9699,78.9536,358.7831,128.1795,0,U,22490,999,76413,.44088E-4,.347E-5,0
TECHSAT 1B (GO-32),1998-043D,2026-07-07T22:14:12.397632,14.24432329,.0001992,99.0078,182.2091,126.6982,233.4379,0,U,25397,999,45428,.35213E-4,.35E-6,0
SCD 2,1998-060A,2026-07-07T11:07:16.658400,14.45533192,.00166876,24.9961,307.1193,338.2344,85.0178,0,U,25504,999,46326,.43214182E-4,.337E-5,0
DLR-TUBSAT,1999-029B,2026-07-08T05:39:53.106048,14.52432175,.0012996,98.6705,185.4334,287.6739,72.3036,0,U,25757,999,43630,.24594E-4,.52E-6,0
TERRA,1999-068A,2026-07-08T04:21:24.903072,14.61119919,.0003081,97.9444,237.8942,136.7787,300.5111,0,U,25994,999,41267,.66815E-4,.284E-5,0
MAROC-TUBSAT,2001-056D,2026-07-07T23:17:11.198400,13.70263263,.0020637,99.8094,6.2224,89.9022,32.7641,0,U,27004,999,22903,.29319E-4,-.21E-6,0
AQUA,2002-022A,2026-07-08T04:46:06.231072,14.62189936,.000074,98.4289,158.9030,99.2232,317.2244,0,U,27424,999,28634,.1191E-3,.55E-5,0
SHIYAN-1 (SY-1),2004-012A,2026-07-08T04:30:02.286144,15.34327079,.0004138,97.8683,268.6278,308.8420,51.2452,0,U,28220,999,21431,.27259E-3,.8975E-4,0
AURA,2004-026A,2026-07-08T03:26:41.404992,14.61360786,.0001233,98.3427,145.7717,90.3844,269.7498,0,U,28376,999,16927,.12629E-3,.576E-5,0
IRS-P5 (CARTOSAT-1),2005-017A,2026-07-07T22:46:05.761056,14.91104329,.0001756,97.5304,211.0712,57.0281,303.1107,0,U,28649,999,14691,.11931E-3,.113E-4,0
SINAH 1,2005-043D,2026-07-08T04:06:06.108192,14.64172352,.0013887,98.2885,323.6193,205.9281,154.1226,0,U,28893,999,10359,.56664E-4,.249E-5,0
RESURS-DK 1,2006-021A,2026-07-07T06:17:53.752416,15.13300743,.00067347,69.9330,287.5844,279.9257,80.1149,0,U,29228,999,10561,.9065456E-4,.1509E-4,0
ARIRANG-2 (KOMPSAT-2),2006-031A,2026-07-08T04:58:05.500704,14.64672395,.0014873,97.8318,12.6369,12.6918,98.2342,0,U,29268,999,6455,.13321E-4,.26E-6,0
LAPAN-TUBSAT,2007-001A,2026-07-08T04:42:43.648128,14.85970279,.0013405,98.1354,188.8949,114.2659,245.9957,0,U,29709,999,5427,-.11679E-4,-.16E-5,0
HAIYANG-1B,2007-010A,2026-07-07T21:51:56.695104,14.31031994,.0014355,98.3507,169.9536,135.9558,224.2772,0,U,31113,999,360,.41755E-4,.68E-6,0
COSMO-SKYMED 1,2007-023A,2026-07-08T04:30:42.183936,14.97197626,.0001055,97.8846,21.2215,89.8054,270.3288,0,U,31598,999,3293,.13518E-3,.1503E-4,0
TERRASAR-X,2007-026A,2026-07-07T11:29:59.023968,15.19153986,.0001878,97.4461,195.8972,86.9540,273.1909,0,U,31698,999,5630,.14624E-4,.24E-5,0
WORLDVIEW-1 (WV-1),2007-041A,2026-07-08T03:59:35.882592,15.24505207,.0000978,97.3891,308.6141,252.1709,107.9422,0,U,32060,999,4607,.15641E-3,.3774E-4,0
YAOGAN-3,2007-055A,2026-07-08T04:51:41.531328,14.90862902,.0001603,97.8148,218.8728,76.8954,283.2443,0,U,32289,999,900,.88228E-4,.813E-5,0
COSMO-SKYMED 2,2007-059A,2026-07-08T03:45:46.880640,14.82162710,.0001337,97.8891,12.4511,92.8268,267.3098,0,U,32376,999,511,.41523E-4,.278E-5,0
RADARSAT-2,2007-061A,2026-07-08T04:03:23.027328,14.29981928,.0001324,98.5784,195.8018,84.1185,276.0149,0,U,32382,999,96895,.10325E-4,-.17E-6,0
CARTOSAT-2A,2008-021A,2026-07-08T03:37:36.278976,14.79269969,.0012932,97.7619,237.1433,48.2883,311.9433,0,U,32783,999,98190,.45989E-4,.292E-5,0
HUANJING 1A (HJ-1A),2008-041A,2026-07-08T04:52:51.452256,14.84040797,.0020683,97.6697,174.2306,70.8997,289.4455,0,U,33320,999,96152,.17729E-3,.1431E-4,0
HUANJING 1B (HJ-1B),2008-041B,2026-07-08T05:59:20.048640,14.83356366,.0037726,97.6532,177.3827,113.0959,247.4239,0,U,33321,999,96153,.11037E-3,.864E-5,0
GEOEYE 1,2008-042A,2026-07-08T04:37:54.222816,14.64645497,.000447,98.1329,262.8707,9.5886,350.5401,0,U,33331,999,95322,.67143E-4,.309E-5,0
THEOS,2008-049A,2026-07-08T04:13:29.622720,14.20135252,.0001135,98.5557,245.7774,86.1640,273.9667,0,U,33396,999,92094,-.13453E-3,-.329E-5,0
COSMO-SKYMED 3,2008-054A,2026-07-08T04:35:27.575232,15.07087527,.0015124,97.8267,48.1091,188.7070,171.3897,0,U,33412,999,96010,.8445E-4,.1204E-4,0
YAOGAN-4,2008-061A,2026-07-07T19:27:03.616128,14.83242097,.0014486,97.9306,122.1690,9.7666,350.3826,0,U,33446,999,94872,.11316E-3,.872E-5,0
GOSAT (IBUKI),2009-002A,2026-07-07T20:46:39.604224,14.67537565,.0001081,98.0908,299.6896,81.4527,278.6800,0,U,33492,999,93449,-.8031E-6,-.53E-6,0
DEIMOS-1,2009-041A,2026-07-08T05:06:07.866720,14.75261044,.0002619,97.7431,345.5315,102.1671,257.9832,0,U,35681,999,90998,.12112E-3,.772E-5,0
DUBAISAT-1,2009-041B,2026-07-07T21:55:02.666784,14.75158632,.001049,98.0076,321.9469,12.1532,347.9928,0,U,35682,999,90815,.10435E-3,.654E-5,0
